{
  "type": "FeatureCollection",
  "features": [
    {
      "type": "Feature",
      "properties": {
        "norad_id": 58701,
        "name": "TIANMU-1 16",
        "group": "weather",
        "lat": -64.5549654191906,
        "lon": -19.678452467966085,
        "alt_km": 496.4949339548657,
        "timestamp": "2025-12-21T11:31:42.483737+00:00",
        "meta_object_name": "TIANMU-1 16",
        "meta_object_id": "2024-004B",
        "meta_epoch": "2025-12-21T04:09:11.800800",
        "meta_mean_motion": 15.24535476,
        "meta_eccentricity": 0.0004334,
        "meta_inclination": 97.456,
        "meta_ra_of_asc_node": 175.9926,
        "meta_arg_of_pericenter": 257.9068,
        "meta_mean_anomaly": 102.1684,
        "meta_ephemeris_type": 0,
        "meta_classification_type": "U",
        "meta_norad_cat_id": 58701,
        "meta_element_set_no": 999,
        "meta_rev_at_epoch": 10863,
        "meta_bstar": 0.00019799,
        "meta_mean_motion_dot": 4.801e-05,
        "meta_mean_motion_ddot": 0,
        "tle_line1": "1 58701U 24004B   25355.17305325  .00004801  00000+0  19799-3 0  9997",
        "tle_line2": "2 58701  97.4560 175.9926 0004334 257.9068 102.1684 15.24535476108636"
      },
      "geometry": {
        "type": "Point",
        "coordinates": [
          -19.678452467966085,
          -64.5549654191906
        ]
      }
    },
    {
      "type": "Feature",
      "properties": {
        "norad_id": 58702,
        "name": "TIANMU-1 17",
        "group": "weather",
        "lat": -28.37818562647384,
        "lon": -179.22813437050934,
        "alt_km": 497.2690825768477,
        "timestamp": "2025-12-21T11:31:42.483747+00:00",
        "meta_object_name": "TIANMU-1 17",
        "meta_object_id": "2024-004C",
        "meta_epoch": "2025-12-21T05:21:10.750176",
        "meta_mean_motion": 15.245796,
        "meta_eccentricity": 0.0003514,
        "meta_inclination": 97.4596,
        "meta_ra_of_asc_node": 176.4568,
        "meta_arg_of_pericenter": 259.2178,
        "meta_mean_anomaly": 100.8664,
        "meta_ephemeris_type": 0,
        "meta_classification_type": "U",
        "meta_norad_cat_id": 58702,
        "meta_element_set_no": 999,
        "meta_rev_at_epoch": 10863,
        "meta_bstar": 0.00019196,
        "meta_mean_motion_dot": 4.658e-05,
        "meta_mean_motion_ddot": 0,
        "tle_line1": "1 58702U 24004C   25355.22304109  .00004658  00000+0  19196-3 0  9994",
        "tle_line2": "2 58702  97.4596 176.4568 0003514 259.2178 100.8664 15.24579600108630"
      },
      "geometry": {
        "type": "Point",
        "coordinates": [
          -179.22813437050934,
          -28.37818562647384
        ]
      }
    },
    {
      "type": "Feature",
      "properties": {
        "norad_id": 58703,
        "name": "TIANMU-1 18",
        "group": "weather",
        "lat": 61.54247875264295,
        "lon": 162.91710549586702,
        "alt_km": 488.04197237105836,
        "timestamp": "2025-12-21T11:31:42.483756+00:00",
        "meta_object_name": "TIANMU-1 18",
        "meta_object_id": "2024-004D",
        "meta_epoch": "2025-12-21T04:57:16.060896",
        "meta_mean_motion": 15.24564102,
        "meta_eccentricity": 0.0002859,
        "meta_inclination": 97.4613,
        "meta_ra_of_asc_node": 176.6374,
        "meta_arg_of_pericenter": 256.9155,
        "meta_mean_anomaly": 103.1764,
        "meta_ephemeris_type": 0,
        "meta_classification_type": "U",
        "meta_norad_cat_id": 58703,
        "meta_element_set_no": 999,
        "meta_rev_at_epoch": 10863,
        "meta_bstar": 0.00019248,
        "meta_mean_motion_dot": 4.668e-05,
        "meta_mean_motion_ddot": 0,
        "tle_line1": "1 58703U 24004D   25355.20643589  .00004668  00000+0  19248-3 0  9990",
        "tle_line2": "2 58703  97.4613 176.6374 0002859 256.9155 103.1764 15.24564102108636"
      },
      "geometry": {
        "type": "Point",
        "coordinates": [
          162.91710549586702,
          61.54247875264295
        ]
      }
    },
    {
      "type": "Feature",
      "properties": {
        "norad_id": 58990,
        "name": "INSAT-3DS",
        "group": "weather",
        "lat": -0.0492412935185158,
        "lon": -14.663428377017013,
        "alt_km": 35784.583163868614,
        "timestamp": "2025-12-21T11:31:42.483768+00:00",
        "meta_object_name": "INSAT-3DS",
        "meta_object_id": "2024-033A",
        "meta_epoch": "2025-12-20T23:53:35.753280",
        "meta_mean_motion": 1.0027214,
        "meta_eccentricity": 0.00011,
        "meta_inclination": 0.054,
        "meta_ra_of_asc_node": 103.3228,
        "meta_arg_of_pericenter": 169.8539,
        "meta_mean_anomaly": 257.1496,
        "meta_ephemeris_type": 0,
        "meta_classification_type": "U",
        "meta_norad_cat_id": 58990,
        "meta_element_set_no": 999,
        "meta_rev_at_epoch": 4528,
        "meta_bstar": 0,
        "meta_mean_motion_dot": -1.33e-06,
        "meta_mean_motion_ddot": 0,
        "tle_line1": "1 58990U 24033A   25354.99555270 -.00000133  00000+0  00000+0 0  9990",
        "tle_line2": "2 58990   0.0540 103.3228 0001100 169.8539 257.1496  1.00272140 45284"
      },
      "geometry": {
        "type": "Point",
        "coordinates": [
          -14.663428377017013,
          -0.0492412935185158
        ]
      }
    },
    {
      "type": "Feature",
      "properties": {
        "norad_id": 59051,
        "name": "METEOR-M2 4",
        "group": "weather",
        "lat": -81.28959720456926,
        "lon": 46.812185705559486,
        "alt_km": 822.4455290686756,
        "timestamp": "2025-12-21T11:31:42.483824+00:00",
        "meta_object_name": "METEOR-M2 4",
        "meta_object_id": "2024-039A",
        "meta_epoch": "2025-12-21T03:30:45.525600",
        "meta_mean_motion": 14.22402488,
        "meta_eccentricity": 0.0006592,
        "meta_inclination": 98.6778,
        "meta_ra_of_asc_node": 311.9238,
        "meta_arg_of_pericenter": 333.6948,
        "meta_mean_anomaly": 26.3894,
        "meta_ephemeris_type": 0,
        "meta_classification_type": "U",
        "meta_norad_cat_id": 59051,
        "meta_element_set_no": 999,
        "meta_rev_at_epoch": 9395,
        "meta_bstar": 2.5432e-05,
        "meta_mean_motion_dot": 1.3e-07,
        "meta_mean_motion_ddot": 0,
        "tle_line1": "1 59051U 24039A   25355.14636025  .00000013  00000+0  25432-4 0  9998",
        "tle_line2": "2 59051  98.6778 311.9238 0006592 333.6948  26.3894 14.22402488 93955"
      },
      "geometry": {
        "type": "Point",
        "coordinates": [
          46.812185705559486,
          -81.28959720456926
        ]
      }
    },
    {
      "type": "Feature",
      "properties": {
        "norad_id": 60133,
        "name": "GOES 19",
        "group": "weather",
        "lat": -0.0022519329552512218,
        "lon": -171.98483730860886,
        "alt_km": 35789.77455177428,
        "timestamp": "2025-12-21T11:31:42.483839+00:00",
        "meta_object_name": "GOES 19",
        "meta_object_id": "2024-119A",
        "meta_epoch": "2025-12-21T02:34:02.741088",
        "meta_mean_motion": 1.00270648,
        "meta_eccentricity": 0.0001095,
        "meta_inclination": 0.0046,
        "meta_ra_of_asc_node": 226.7405,
        "meta_arg_of_pericenter": 97.9425,
        "meta_mean_anomaly": 88.5672,
        "meta_ephemeris_type": 0,
        "meta_classification_type": "U",
        "meta_norad_cat_id": 60133,
        "meta_element_set_no": 999,
        "meta_rev_at_epoch": 517,
        "meta_bstar": 0,
        "meta_mean_motion_dot": -2.25e-06,
        "meta_mean_motion_ddot": 0,
        "tle_line1": "1 60133U 24119A   25355.10697617 -.00000225  00000+0  00000+0 0  9995",
        "tle_line2": "2 60133   0.0046 226.7405 0001095  97.9425  88.5672  1.00270648  5179"
      },
      "geometry": {
        "type": "Point",
        "coordinates": [
          -171.98483730860886,
          -0.0022519329552512218
        ]
      }
    },
    {
      "type": "Feature",
      "properties": {
        "norad_id": 65815,
        "name": "FENGYUN 3H",
        "group": "weather",
        "lat": 68.07959158317779,
        "lon": -87.37254701799348,
        "alt_km": 818.5768256945657,
        "timestamp": "2025-12-21T11:31:42.483850+00:00",
        "meta_object_name": "FENGYUN 3H",
        "meta_object_id": "2025-219A",
        "meta_epoch": "2025-12-21T02:44:41.957664",
        "meta_mean_motion": 14.19906726,
        "meta_eccentricity": 7.45e-05,
        "meta_inclination": 98.6596,
        "meta_ra_of_asc_node": 294.5232,
        "meta_arg_of_pericenter": 105.8145,
        "meta_mean_anomaly": 254.3114,
        "meta_ephemeris_type": 0,
        "meta_classification_type": "U",
        "meta_norad_cat_id": 65815,
        "meta_element_set_no": 999,
        "meta_rev_at_epoch": 1211,
        "meta_bstar": 4.2254e-05,
        "meta_mean_motion_dot": 4.6e-07,
        "meta_mean_motion_ddot": 0,
        "tle_line1": "1 65815U 25219A   25355.11437451  .00000046  00000+0  42254-4 0  9990",
        "tle_line2": "2 65815  98.6596 294.5232 0000745 105.8145 254.3114 14.19906726 12117"
      },
      "geometry": {
        "type": "Point",
        "coordinates": [
          -87.37254701799348,
          68.07959158317779
        ]
      }
    }
  ]
}